{
  "norad_id": 56700,
  "name": "STARLINK-30053",
  "history": [
    {
      "epoch": "2026-03-28T16:17:46.635072",
      "apogee_km": 484.1307840943973,
      "perigee_km": 481.94206977120575,
      "latitude_deg": -41.58064327103708,
      "longitude_deg": -84.81484992010519,
      "semi_major_axis_km": 6861.173426932801,
      "eccentricity": 0.0001595,
      "inclination_deg": 43.0033,
      "raan_deg": 163.8675,
      "arg_perigee_deg": 266.6853,
      "mean_anomaly_deg": 93.3816,
      "mean_motion_rev_day": 15.27584231
    }
  ]
}